     2.100          NAVIGATION                              RINEX VERSION / TYPE
fic2rin                                 05/03/2011 00:04:02 PGM / RUN BY / DATE
                                                            END OF HEADER
20 11  5  2 12  0  0.0  .491212122142D-04  .113686837722D-12  .000000000000D+00
     .550000000000D+02  .124375000000D+03  .504306720685D-08  .286197637724D+01
     .642985105515D-05  .462412973866D-02  .678189098835D-05  .515367876625D+04
     .129600000000D+06  .521540641785D-07  .518599104820D+00 -.596046447754D-07
     .933828876052D+00  .230718750000D+03  .129334673306D+01 -.829891711178D-08
     .206080012631D-09  .100000000000D+01  .163400000000D+04  .000000000000D+00
     .240000000000D+01  .000000000000D+00 -.745058059692D-08  .550000000000D+02
     .122406000000D+06  .400000000000D+01
21 11  5  2 12  0  0.0 -.141473487020D-03 -.261479726760D-11  .000000000000D+00
     .320000000000D+02 -.853125000000D+01  .499199365086D-08 -.255325361946D+01
    -.724568963051D-06  .177570270607D-01  .111050903797D-04  .515377124596D+04
     .129600000000D+06  .186264514923D-06 -.481316210398D+00 -.260770320892D-06
     .932043333335D+00  .147812500000D+03 -.237340919144D+01 -.796318884164D-08
    -.311084386485D-09  .100000000000D+01  .163400000000D+04  .000000000000D+00
     .240000000000D+01  .000000000000D+00 -.116415321827D-07  .320000000000D+02
     .122406000000D+06  .400000000000D+01
22 11  5  2 12  0  0.0  .149388331920D-03 -.568434188608D-12  .000000000000D+00
     .370000000000D+02  .117968750000D+03  .519128766654D-08  .170208263288D+01
     .607594847679D-05  .556662643794D-02  .688247382641D-05  .515371336937D+04
     .129600000000D+06 -.141561031342D-06  .576691752909D+00 -.119209289551D-06
     .931341327225D+00  .232781250000D+03 -.197954184823D+01 -.844106588999D-08
     .247153152064D-09  .100000000000D+01  .163400000000D+04  .000000000000D+00
     .240000000000D+01  .000000000000D+00 -.167638063431D-07  .370000000000D+02
     .122406000000D+06  .400000000000D+01
24 11  5  2 12  0  0.0  .386507716030D-03  .318323145621D-11  .000000000000D+00
     .830000000000D+02  .176250000000D+02  .473805450185D-08 -.726294205892D+00
     .797212123871D-06  .609022181015D-02  .108797103167D-04  .515371772194D+04
     .129600000000D+06  .521540641785D-07 -.437001124359D+00 -.111758708954D-06
     .948676600714D+00  .165281250000D+03 -.288128060387D+00 -.800926218935D-08
    -.349657421778D-09  .100000000000D+01  .163400000000D+04  .000000000000D+00
     .340000000000D+01  .000000000000D+00 -.139698386192D-08  .830000000000D+02
     .122406000000D+06  .400000000000D+01
25 11  5  2 12  0  0.0 -.748317688704D-06  .568434188608D-12  .000000000000D+00
     .520000000000D+02  .190937500000D+02  .428374986395D-08  .291030457234D+01
     .107288360596D-05  .726404017769D-03  .977143645287D-05  .515366246033D+04
     .129600000000D+06  .577419996262D-07 -.259895733074D+01  .745058059692D-08
     .963803593511D+00  .194312500000D+03  .817245753932D+00 -.780961101593D-08
     .648955603034D-09  .100000000000D+01  .163400000000D+04  .000000000000D+00
     .240000000000D+01  .000000000000D+00  .512227416039D-08  .520000000000D+02
     .122406000000D+06  .400000000000D+01
26 11  5  2 12  0  0.0 -.188522972167D-04 -.108002495836D-10  .000000000000D+00
     .740000000000D+02 -.375000000000D+02  .438268255632D-08 -.316244501767D+00
    -.176019966602D-05  .205072471872D-01  .198371708393D-05  .515364568710D+04
     .129600000000D+06 -.106170773506D-06  .167938942485D+01  .264495611191D-06
     .987234085919D+00  .355250000000D+03  .114233374763D+01 -.861643033748D-08
    -.197508227010D-09  .100000000000D+01  .163400000000D+04  .000000000000D+00
     .240000000000D+01  .000000000000D+00 -.605359673500D-08  .740000000000D+02
     .122406000000D+06  .400000000000D+01
27 11  5  2 12  0  0.0  .261038076133D-03  .363797880709D-11  .000000000000D+00
     .100000000000D+03 -.121750000000D+03  .386373236853D-08  .673625728884D+00
    -.662356615067D-05  .215863608755D-01  .949390232563D-05  .515368527603D+04
     .129600000000D+06 -.122934579849D-06  .260508230541D+01 -.339001417160D-06
     .981059730447D+00  .216406250000D+03 -.125880259391D+01 -.808462247126D-08
    -.330370904131D-09  .100000000000D+01  .163400000000D+04  .000000000000D+00
     .340000000000D+01  .000000000000D+00 -.419095158577D-08  .100000000000D+03
     .122406000000D+06  .400000000000D+01
28 11  5  2 12  0  0.0  .351518392563D-04  .250111042988D-11  .000000000000D+00
     .130000000000D+02  .220937500000D+02  .417945980556D-08  .176955540929D+01
     .100955367088D-05  .169503351208D-01  .941008329391D-05  .515369312477D+04
     .129600000000D+06 -.139698386192D-06 -.254436758733D+01 -.394880771637D-06
     .974296025260D+00  .204375000000D+03 -.188923534905D+01 -.774710841245D-08
     .692886004340D-09  .100000000000D+01  .163400000000D+04  .000000000000D+00
     .240000000000D+01  .000000000000D+00 -.102445483208D-07  .130000000000D+02
     .122406000000D+06  .400000000000D+01
29 11  5  2 12  0  0.0  .204400625080D-03  .295585778076D-11  .000000000000D+00
     .400000000000D+01 -.102187500000D+02  .493234830925D-08 -.231734008382D+01
    -.447034835815D-06  .266017450485D-02  .445544719696D-05  .515379412651D+04
     .129600000000D+06 -.558793544769D-08 -.150045888322D+01  .502914190292D-07
     .961103763567D+00  .291000000000D+03 -.121039639602D+01 -.820534178542D-08
    -.342871424828D-10  .100000000000D+01  .163400000000D+04  .000000000000D+00
     .240000000000D+01  .000000000000D+00 -.931322574615D-08  .400000000000D+01
     .122406000000D+06  .400000000000D+01
30 11  5  2 12  0  0.0  .341191422194D-03  .284217094304D-11  .000000000000D+00
     .104000000000D+03  .171562500000D+02  .450125892407D-08  .909147556502D+00
     .841915607452D-06  .126677413937D-01  .977329909801D-05  .515366934204D+04
     .129600000000D+06 -.195577740669D-06 -.262810351138D+01 -.113621354103D-06
     .960439468559D+00  .194718750000D+03  .152194418759D+01 -.815569686037D-08
     .543594071446D-09  .100000000000D+01  .163400000000D+04  .000000000000D+00
     .340000000000D+01  .000000000000D+00 -.838190317154D-08  .104000000000D+03
     .122406000000D+06  .400000000000D+01
31 11  5  2 12  0  0.0  .745956785977D-04  .534328137292D-11  .000000000000D+00
     .420000000000D+02 -.973437500000D+02  .380265839599D-08 -.171944685313D+01
    -.501051545143D-05  .770453969017D-02  .973045825958D-05  .515365717888D+04
     .129600000000D+06 -.137835741043D-06  .266070309740D+01  .949949026108D-07
     .979749053864D+00  .205625000000D+03 -.958541129006D+00 -.774925135885D-08
    -.143934566881D-09  .100000000000D+01  .163400000000D+04  .000000000000D+00
     .240000000000D+01  .000000000000D+00 -.130385160446D-07  .420000000000D+02
     .122406000000D+06  .400000000000D+01
32 11  5  2 12  0  0.0 -.246232841164D-03 -.727595761418D-11  .000000000000D+00
     .450000000000D+02  .110281250000D+03  .476519848964D-08 -.100774581977D+01
     .584311783314D-05  .121745460201D-01  .590644776821D-05  .515369235992D+04
     .129600000000D+06 -.111758708954D-06  .642888640927D+00 -.100582838058D-06
     .955497827840D+00  .265312500000D+03 -.794552595642D+00 -.840106422376D-08
     .381444460121D-09  .100000000000D+01  .163400000000D+04  .000000000000D+00
     .240000000000D+01  .000000000000D+00 -.279396772385D-08  .450000000000D+02
     .122406000000D+06  .400000000000D+01
30 11  5  2 11 59 44.0  .341183971614D-03  .272848410532D-11  .000000000000D+00
     .180000000000D+02  .171562500000D+02  .450125892407D-08  .906812954297D+00
     .841915607452D-06  .126677410444D-01  .977329909801D-05  .515366935158D+04
     .129584000000D+06 -.195577740669D-06 -.262810338557D+01 -.113621354103D-06
     .960439453930D+00  .194718750000D+03  .152194499951D+01 -.815569686037D-08
     .543594071446D-09  .100000000000D+01  .163400000000D+04  .000000000000D+00
     .240000000000D+01  .000000000000D+00 -.838190317154D-08  .180000000000D+02
     .125196000000D+06  .400000000000D+01
10 11  5  2 11 59 44.0 -.729286111891D-04 -.795807864051D-12  .000000000000D+00
     .590000000000D+02  .130656250000D+03  .484805908398D-08  .197502474341D+01
     .661984086037D-05  .101210071007D-01  .721774995327D-05  .515360658646D+04
     .129584000000D+06 -.253319740295D-06  .577696152964D+00 -.633299350739D-07
     .949742703727D+00  .235656250000D+03  .706513066499D+00 -.826070123422D-08
     .268582616115D-09  .100000000000D+01  .163400000000D+04  .000000000000D+00
     .240000000000D+01  .000000000000D+00 -.232830643654D-08  .590000000000D+02
     .125346000000D+06  .400000000000D+01
 3 11  5  2 11 59 44.0  .709731131792D-03  .511590769747D-11  .000000000000D+00
     .230000000000D+02  .812500000000D+00  .584060042731D-08 -.578633576240D-01
     .726431608200D-07  .141331340419D-01  .420771539211D-05  .515364466095D+04
     .129584000000D+06 -.819563865662D-07 -.166513282150D+01  .143423676491D-06
     .928211051190D+00  .283906250000D+03  .108504310781D+01 -.896894502113D-08
     .335728270144D-10  .100000000000D+01  .163400000000D+04  .000000000000D+00
     .240000000000D+01  .000000000000D+00 -.465661287308D-08  .230000000000D+02
     .127986000000D+06  .400000000000D+01
17 11  5  2 11 59 44.0  .184370204806D-03  .000000000000D+00  .000000000000D+00
     .170000000000D+02 -.115625000000D+02  .502163774280D-08  .109176903752D+01
    -.707805156708D-06  .630473834462D-02  .482611358166D-05  .515374199867D+04
     .129584000000D+06 -.577419996262D-07 -.150883360354D+01  .782310962677D-07
     .960669819640D+00  .284406250000D+03 -.239783334754D+01 -.832106089130D-08
    -.167506977338D-09  .100000000000D+01  .163400000000D+04  .000000000000D+00
     .240000000000D+01  .000000000000D+00 -.107102096081D-07  .170000000000D+02
     .128076000000D+06  .400000000000D+01
